NORAD_CAT_ID,OBJECT_NAME,OBJECT_TYPE,EPOCH,MEAN_MOTION,ECCENTRICITY,INCLINATION,RA_OF_ASC_NODE,ARG_OF_PERICENTER,MEAN_ANOMALY,BSTAR,MEAN_MOTION_DOT,MEAN_MOTION_DDOT,TLE_LINE0,TLE_LINE1,TLE_LINE2,SEMIMAJOR_AXIS,PERIOD,APOGEE,PERIGEE,DECAYED
52302.0,STARLINK-3564,PAYLOAD,2022-10-27 03:58:23,15.08839509,0.0001701,53.2162,208.6654,48.742,311.3718,0.00019076,2.749e-05,0.0,0 STARLINK-3564,1 52302U 22041AT  22300.16554687  .00002749  00000-0  19076-3 0  9998,2 52302  53.2162 208.6654 0001701  48.7420 311.3718 15.08839509 29023,6917.882,95.438,540.924,538.57,0.0
52302.0,STARLINK-3564,PAYLOAD,2022-10-27 21:27:37,15.08846602,0.0001841,53.2174,205.3934,55.1406,304.9759,9.9532e-05,1.297e-05,0.0,0 STARLINK-3564,1 52302U 22041AT  22300.89418436  .00001297  00000-0  99532-4 0  9992,2 52302  53.2174 205.3934 0001841  55.1406 304.9759 15.08846602 30344,6917.86,95.437,540.999,538.452,0.0
52302.0,STARLINK-3564,PAYLOAD,2022-10-27 23:03:00,15.08847065,0.0001878,53.2175,205.0962,54.1059,306.0108,9.9382e-05,1.294e-05,0.0,0 STARLINK-3564,1 52302U 22041AT  22300.96042382  .00001294  00000-0  99382-4 0  9993,2 52302  53.2175 205.0962 0001878  54.1059 306.0108 15.08847065 29147,6917.859,95.437,541.023,538.425,0.0
52302.0,STARLINK-3564,PAYLOAD,2022-10-28 18:07:37,15.08847669,0.0001949,53.2174,201.5284,45.9269,314.1883,0.00012038,1.629e-05,0.0,0 STARLINK-3564,1 52302U 22041AT  22301.75529706  .00001629  00000-0  12038-3 0  9995,2 52302  53.2174 201.5284 0001949  45.9269 314.1883 15.08847669 29267,6917.857,95.437,541.07,538.374,0.0
52302.0,STARLINK-3564,PAYLOAD,2022-10-29 02:04:33,15.08849186,0.0001802,53.2173,200.0409,53.0362,307.0795,7.6547e-05,9.31e-06,0.0,0 STARLINK-3564,1 52302U 22041AT  22302.08649669  .00000931  00000-0  76547-4 0  9994,2 52302  53.2173 200.0409 0001802  53.0362 307.0795 15.08849186 30521,6917.852,95.437,540.964,538.471,0.0
52302.0,STARLINK-3564,PAYLOAD,2022-10-29 21:09:11,15.08846966,0.0001918,53.2165,196.4739,42.8271,317.2870000000001,3.5811999999999995e-05,2.82e-06,0.0,0 STARLINK-3564,1 52302U 22041AT  22302.88137736  .00000282  00000-0  35812-4 0  9998,2 52302  53.2165 196.4739 0001918  42.8271 317.2870 15.08846966 29437,6917.859,95.437,541.0509999999998,538.3969999999998,0.0
52302.0,STARLINK-3564,PAYLOAD,2022-10-30 09:52:16,15.0883928,0.0001739,53.2163,194.0956,49.2469,310.8674,-1.6043e-05,-5.43e-06,0.0,0 STARLINK-3564,1 52302U 22041AT  22303.41130271 -.00000543  00000-0 -16043-4 0  9992,2 52302  53.2163 194.0956 0001739  49.2469 310.8674 15.08839280 29512,6917.8830000000025,95.438,540.951,538.545,0.0
52302.0,STARLINK-3564,PAYLOAD,2022-10-30 20:59:58,15.08837636,0.0001743,53.2156,192.0122,55.2761,304.8395,4.0163e-05,3.51e-06,0.0,0 STARLINK-3564,1 52302U 22041AT  22303.87497836  .00000351  00000-0  40163-4 0  9990,2 52302  53.2156 192.0122 0001743  55.2761 304.8395 15.08837636 29587,6917.888000000001,95.438,540.9580000000002,538.547,0.0
52302.0,STARLINK-3564,PAYLOAD,2022-10-31 11:18:26,15.08833635,0.0001807,53.2153,189.3382,48.069,312.0456,-7.584100000000001e-05,-1.495e-05,0.0,0 STARLINK-3564,1 52302U 22041AT  22304.47114158 -.00001495  00000-0 -75841-4 0  9993,2 52302  53.2153 189.3382 0001807  48.0690 312.0456 15.08833635 29677,6917.9,95.438,541.015,538.515,0.0
52302.0,STARLINK-3564,PAYLOAD,2022-10-31 19:15:22,15.0883689,0.0001827,53.2162,187.85,51.5827,308.5329,8.9409e-05,1.135e-05,0.0,0 STARLINK-3564,1 52302U 22041AT  22304.80234261  .00001135  00000-0  89409-4 0  9992,2 52302  53.2162 187.8500 0001827  51.5827 308.5329 15.08836890 30931,6917.89,95.438,541.019,538.491,0.0
52302.0,STARLINK-3564,PAYLOAD,2022-11-01 09:33:50,15.08833978,0.0001693,53.2154,185.1747,52.8609,307.2538,0.00012562,1.711e-05,0.0,0 STARLINK-3564,1 52302U 22041AT  22305.39850618  .00001711  00000-0  12562-3 0  9992,2 52302  53.2154 185.1747 0001693  52.8609 307.2538 15.08833978 29816,6917.899,95.438,540.935,538.5930000000002,0.0
52302.0,STARLINK-3564,PAYLOAD,2022-11-01 19:06:10,15.08827862,0.000175,53.2154,183.39,54.2209,305.8946,-6.5942e-05,-1.337e-05,0.0,0 STARLINK-3564,1 52302U 22041AT  22305.79595187 -.00001337  00000-0 -65942-4 0  9990,2 52302  53.2154 183.3900 0001750  54.2209 305.8946 15.08827862 31087,6917.917,95.438,540.993,538.572,0.0
52302.0,STARLINK-3564,PAYLOAD,2022-11-02 09:24:39,15.08822656,0.0001629,53.2162,180.7129,61.17,298.9456,-6.2986e-06,-3.88e-06,0.0,0 STARLINK-3564,1 52302U 22041AT  22306.39212368 -.00000388  00000-0 -62986-5 0  9995,2 52302  53.2162 180.7129 0001629  61.1700 298.9456 15.08822656 31172,6917.933000000001,95.439,540.925,538.6709999999998,0.0
52302.0,STARLINK-3564,PAYLOAD,2022-11-03 02:53:52,15.08858234,0.0001746,53.2154,177.4437,40.6051,319.5071,-0.0002119,-3.661e-05,0.0,0 STARLINK-3564,1 52302U 22041AT  22307.12074652 -.00003661  00000-0 -21190-3 0  9996,2 52302  53.2154 177.4437 0001746  40.6051 319.5071 15.08858234 31285,6917.825,95.436,540.898,538.482,0.0
52302.0,STARLINK-3564,PAYLOAD,2022-11-03 18:47:44,15.08840924,0.0001807,53.2155,174.4694,31.7088,328.4012,0.00029313,4.38e-05,0.0,0 STARLINK-3564,1 52302U 22041AT  22307.78314899  .00004380  00000-0  29313-3 0  9990,2 52302  53.2155 174.4694 0001807  31.7088 328.4012 15.08840924 31389,6917.878000000002,95.437,540.993,538.493,0.0
52302.0,STARLINK-3564,PAYLOAD,2022-11-03 20:23:07,15.08842982,0.0001720999999999,53.2159,174.1715,36.6238,323.4871,0.0003204,4.815e-05,0.0,0 STARLINK-3564,1 52302U 22041AT  22307.84938771  .00004815  00000-0  32040-3 0  9992,2 52302  53.2159 174.1715 0001721  36.6238 323.4871 15.08842982 30181,6917.871,95.437,540.927,538.5459999999998,0.0
52302.0,STARLINK-3564,PAYLOAD,2022-11-04 01:09:16,15.08853966,0.000176,53.2152,173.2798,38.4637,321.6481,0.00046857,7.18e-05,0.0,0 STARLINK-3564,1 52302U 22041AT  22308.04811016  .00007180  00000-0  46857-3 0  9996,2 52302  53.2152 173.2798 0001760  38.4637 321.6481 15.08853966 30216,6917.8380000000025,95.437,540.92,538.485,0.0
52302.0,STARLINK-3564,PAYLOAD,2022-11-04 21:49:17,15.08845961,0.0001811,53.2169,169.4121,55.2678,304.8485,4.0716e-05,3.6000000000000007e-06,0.0,0 STARLINK-3564,1 52302U 22041AT  22308.90923154  .00000360  00000-0  40716-4 0  9990,2 52302  53.2169 169.4121 0001811  55.2678 304.8485 15.08845961 30347,6917.861999999999,95.437,540.98,538.474,0.0
52302.0,STARLINK-3564,PAYLOAD,2022-11-05 02:35:27,15.08839447,0.0001636,53.2159,168.5207,51.1858,308.928,-4.704100000000001e-05,-1.037e-05,0.0,0 STARLINK-3564,1 52302U 22041AT  22309.10795716 -.00001037  00000-0 -47041-4 0  9996,2 52302  53.2159 168.5207 0001636  51.1858 308.9280 15.08839447 30374,6917.882,95.438,540.879,538.615,0.0
52302.0,STARLINK-3564,PAYLOAD,2022-11-05 18:29:20,15.08818937,0.0001648,53.2186,165.5512,48.4305,311.6828,-0.00022843,-3.92e-05,0.0,0 STARLINK-3564,1 52302U 22041AT  22309.77038173 -.00003920  00000-0 -22843-3 0  9991,2 52302  53.2186 165.5512 0001648  48.4305 311.6828 15.08818937 31684,6917.945,95.439,540.95,538.67,0.0
52302.0,STARLINK-3564,PAYLOAD,2022-11-06 02:26:16,15.08821605,0.0001629,53.216,164.0604,55.6597,304.4549,-0.00021809,-3.755e-05,0.0,0 STARLINK-3564,1 52302U 22041AT  22310.10157992 -.00003755  00000-0 -21809-3 0  9998,2 52302  53.2160 164.0604 0001629  55.6597 304.4549 15.08821605 31736,6917.937,95.439,540.929,538.675,0.0
52302.0,STARLINK-3564,PAYLOAD,2022-11-07 00:41:40,15.08819718,0.0001738,53.2159,159.8974,53.2094,306.9057,4.5025e-05,4.28e-06,0.0,0 STARLINK-3564,1 52302U 22041AT  22311.02894572  .00000428  00000-0  45025-4 0  9991,2 52302  53.2159 159.8974 0001738  53.2094 306.9057 15.08819718 31871,6917.941999999999,95.439,541.01,538.605,0.0
52302.0,STARLINK-3564,PAYLOAD,2022-11-07 16:35:32,15.08818557,0.0001745,53.216,156.9239,54.1441,305.9713,0.00024786,3.657e-05,0.0,0 STARLINK-3564,1 52302U 22041AT  22311.69135137  .00003657  00000-0  24786-3 0  9996,2 52302  53.2160 156.9239 0001745  54.1441 305.9713 15.08818557 30764,6917.946,95.439,541.018,538.604,0.0
52302.0,STARLINK-3564,PAYLOAD,2022-11-08 06:54:00,15.08834464,0.0001783,53.216,154.2475,54.6915,305.4244,0.00033638,5.069e-05,0.0,0 STARLINK-3564,1 52302U 22041AT  22312.28750773  .00005069  00000-0  33638-3 0  9996,2 52302  53.2160 154.2475 0001783  54.6915 305.4244 15.08834464 32064,6917.897,95.438,540.996,538.529,0.0
52302.0,STARLINK-3564,PAYLOAD,2022-11-08 19:37:05,15.08856184,0.0001796,53.2143,151.8685,55.3794,304.7368,0.00052566,8.091e-05,0.0,0 STARLINK-3564,1 52302U 22041AT  22312.81742444  .00008091  00000-0  52566-3 0  9990,2 52302  53.2143 151.8685 0001796  55.3794 304.7368 15.08856184 30934,6917.831,95.437,540.938,538.453,0.0
52302.0,STARLINK-3564,PAYLOAD,2022-11-09 13:06:19,15.08858122,0.0001902,53.2135,148.5975,54.2815,305.8354,0.00011356,1.52e-05,0.0,0 STARLINK-3564,1 52302U 22041AT  22313.54605504  .00001520  00000-0  11356-3 0  9998,2 52302  53.2135 148.5975 0001902  54.2815 305.8354 15.08858122 31045,6917.825,95.436,541.006,538.374,0.0
52302.0,STARLINK-3564,PAYLOAD,2022-11-09 19:27:51,15.08844717,0.0001751,53.2137,147.4077,43.4179,316.695,-0.00021109,-3.647e-05,0.0,0 STARLINK-3564,1 52302U 22041AT  22313.81101628 -.00003647  00000-0 -21109-3 0  9997,2 52302  53.2137 147.4077 0001751  43.4179 316.6950 15.08844717 32298,6917.866,95.437,540.942,538.52,0.0
52302.0,STARLINK-3564,PAYLOAD,2022-11-10 00:14:01,15.08841658,0.0001774,53.214,146.516,48.0266,312.0877,-0.00020385,-3.531e-05,0.0,0 STARLINK-3564,1 52302U 22041AT  22314.00973727 -.00003531  00000-0 -20385-3 0  9993,2 52302  53.2140 146.5160 0001774  48.0266 312.0877 15.08841658 31117,6917.875,95.437,540.9680000000002,538.513,0.0
52302.0,STARLINK-3564,PAYLOAD,2022-11-10 19:18:39,15.08843316,0.0001784,53.2146,142.947,51.518,308.5971,-5.649300000000001e-07,-2.97e-06,0.0,0 STARLINK-3564,1 52302U 22041AT  22314.80461911 -.00000297  00000-0 -56493-6 0  9996,2 52302  53.2146 142.9470 0001784  51.5180 308.5971 15.08843316 31233,6917.87,95.437,540.969,538.501,0.0
